BEESAT-4                
1 41619U 16040W   21248.60416054  .00003288  00000-0  13065-3 0  9994
2 41619  97.2628 302.4384 0011844  54.6429 305.5915 15.25937699277234
CAS-2T & KS-1Q          
1 41847U 16066G   21248.55114465  .00000102  00000-0  26094-4 0  9999
2 41847  98.5943 307.9812 0364759 341.4631  17.3549 14.38231980253390
NAYIF-1 (EO-88)         
1 42017U 17008BX  21248.63034919  .00003643  00000-0  13339-3 0  9990
2 42017  97.3102 314.7914 0006186 167.9626 192.1763 15.28641803253507
ZHUHAI-1 02 (CAS-4B)    
1 42759U 17034B   21248.71560142  .00000817  00000-0  62204-4 0  9999
2 42759  43.0176  99.7909 0009736 304.2727 139.2895 15.10343883233284
ZHUHAI-1 01 (CAS-4A)    
1 42761U 17034D   21248.70818484  .00000771  00000-0  59352-4 0  9995
2 42761  43.0179  98.8254 0010030 306.1502 171.5618 15.10431580233288
MAX VALIER SAT          
1 42778U 17036P   21248.55238995  .00001831  00000-0  78638-4 0  9997
2 42778  97.2485 294.5197 0010061 250.4640 109.5511 15.23883963233481
RADFXSAT (FOX-1B)       
1 43017U 17073E   21248.67425184  .00001652  00000-0  13086-3 0  9992
2 43017  97.6975 149.4514 0255542  38.8694 323.0589 14.79695070204980
FOX-1D (AO-92)          
1 43137U 18004AC  21248.69060298  .00002225  00000-0  90519-4 0  9997
2 43137  97.4020 321.8959 0007091 292.1887  67.8598 15.25562591202898
DIWATA-2B               
1 43678U 18084H   21248.67617251  .00000114  00000-0  17112-4 0  9993
2 43678  97.9332  14.4132 0010607 139.0994 221.1012 14.91783920155393
ES'HAIL 2               
1 43700U 18090A   21248.73851693  .00000138  00000-0  00000-0 0  9993
2 43700   0.0136 121.6833 0002220  80.7391  74.3118  1.00273528 10175
FOX-1CLIFF (AO-95)      
1 43770U 18099N   21248.14537990  .00000971  00000-0  92806-4 0  9999
2 43770  97.6595 316.5527 0015451 146.2624 213.9584 14.95410996150369
ITASAT 1                
1 43786U 18099AE  21248.65134913  .00000251  00000-0  27588-4 0  9996
2 43786  97.6611 317.7812 0016109 138.9088 221.3349 14.95691485150476
JY1SAT (JO-97)          
1 43803U 18099AX  21248.46776359  .00000973  00000-0  91749-4 0  9992
2 43803  97.6574 317.3449 0016224 139.0958 221.1484 14.95955788150457
UWE-4                   
1 43880U 18111E   21248.73177321  .00000329  00000-0  33639-4 0  9995
2 43880  97.6787 155.0721 0011777 189.3247 170.7758 14.96961739147098
NEXUS (FO-99)           
1 43937U 19003F   21248.58720212  .00003059  00000-0  12023-3 0  9991
2 43937  97.1704 288.5471 0024803  88.6768 271.7312 15.26119313146489
PSAT2 (NO-104)          
1 44354U 19036R   21248.54706500  .00013816  00000-0  17507-3 0  9995
2 44354  28.5268 311.9693 0315926  66.2528 297.0872 15.16123495121130
BRICSAT2 (NO-103)       
1 44355U 19036S   21248.68760970  .00033977 -57764-5  32658-3 0  9991
2 44355  28.5244 251.5570 0243005 164.5568 196.2602 15.35264829121759
JAISAT-1                
1 44419U 19038F   21248.61571710  .00002010  00000-0  11378-3 0  9994
2 44419  97.5958 213.0640 0022092  39.5528 320.7310 15.14009110119920
DUCHIFAT-3              
1 44854U 19089C   21248.63056952  .00000765  00000-0  67333-4 0  9999
2 44854  36.9694 346.4479 0007551  58.4528 301.6952 14.99605123 95146
CAS-6 (TO-108)          
1 44881U 19093C   21248.70704845  .00000103  00000-0  19902-4 0  9998
2 44881  97.9210 326.6492 0016036  36.6322 323.5990 14.81476764 92612
RS-44 & BREEZE-KM R/B   
1 44909U 19096E   21248.76351939  .00000027  00000-0  71340-4 0  9999
2 44909  82.5191  59.4384 0216402 265.3303  92.3055 12.79710867 79091
ORBITAL FACTORY 2 (OF-2)
1 45113U 19071C   21248.75297624  .00005968  00000-0  17584-3 0  9997
2 45113  51.6430   7.9958 0011354 222.8363 137.1737 15.36411792 89514
HUSKYSAT-1 (HO-107)     
1 45119U 19071J   21248.69910267  .00004583  00000-0  13770-3 0  9996
2 45119  51.6427   7.6286 0010746 218.7959 141.2254 15.36388094 89503
BY70-2                  
1 45857U 20042B   21248.78076926  .00001405  00000-0  20539-3 0  9991
2 45857  97.9813 323.6938 0009655 321.1748  38.8766 14.77246407 63406
SALSAT                  
1 46495U 20068K   21248.99036970 -.00000030  00000-0  23337-5 0  9991
2 46495  97.6935 186.0244 0016925 154.9301 205.2750 15.03522788 51435
BY70-3                  
1 46839U 20079N   21248.75422171  .00004012  00000-0  12331-3 0  9994
2 46839  97.2360 321.0243 0005299 278.7678 199.3422 15.34258402 46514
RADFXSAT-2 (AO-109)     
1 47311U 21002C   21248.71297181  .00001848  00000-0  90775-4 0  9997
2 47311  60.6871 350.6885 0041360  89.0048 271.5777 15.21940426 35080
UVSQ-SAT                
1 47438U 21006AB  21248.39360072  .00001351  00000-0  79344-4 0  9993
2 47438  97.4808 308.1663 0012834 174.8626 185.2740 15.13325956 34142
DIY-1 (ARDUIQUBE)       
1 47963U 21022AH  21248.54826232  .00003922  00000-0  26032-3 0  9997
2 47963  97.5499 149.4513 0020747  34.8153 325.4428 15.07642260 23966
